#aV2019  3 24  0  0  0.00000000     288 DD+AD WGS84 FIT  NGA
## 2046      0.00000000   300.00000000 58566 0.0000000000000
+   31     1  2  3  5  6  7  8  9 10 11 12 13 14 15 16 17 18
+         19 20 21 22 23 24 25 26 27 28 29 30 31 32  0  0  0
+          0  0  0  0  0  0  0  0  0  0  0  0  0  0  0  0  0
+          0  0  0  0  0  0  0  0  0  0  0  0  0  0  0  0  0
+          0  0  0  0  0  0  0  0  0  0  0  0  0  0  0  0  0
++         2  2  2  2  2  2  2  2  2  2  2  2  2  2  2  2  2
++         2  2  2  2  2  2  2  2  2  2  2  2  2  2  0  0  0
++         0  0  0  0  0  0  0  0  0  0  0  0  0  0  0  0  0
++         0  0  0  0  0  0  0  0  0  0  0  0  0  0  0  0  0
++         0  0  0  0  0  0  0  0  0  0  0  0  0  0  0  0  0
%c cc cc ccc ccc cccc cccc cccc cccc ccccc ccccc ccccc ccccc
%c cc cc ccc ccc cccc cccc cccc cccc ccccc ccccc ccccc ccccc
%f  0.0000000  0.000000000  0.00000000000  0.000000000000000
%f  0.0000000  0.000000000  0.00000000000  0.000000000000000
%i    0    0    0    0      0      0      0      0         0
%i    0    0    0    0      0      0      0      0         0
/*      NGA, ST. LOUIS,MO.                                  
/*   EPHEMERIS COMPUTED FROM 2 DAYS OF DATA                 
/*   EPOCHA v3 SMOOTHER                                     
/*   G1762 IERS2010 SATAF SATAPC                            
*  2019  3 24 12 20  0.00000000
P  1 -16119.588416  -2240.574985  20882.215925   -187.182849                    
V  1  -9286.387521 -25149.803157  -9476.946604     -0.077198                    
P  2  14439.523120  21596.824751  -5325.896875   -171.540526                    
V  2    592.824610   8028.597316  30517.823526     -0.095820                    
P  3 -19884.063432   7324.740337  15927.730113    187.182115                    
V  3  11040.040823 -17168.810066  21705.339282      0.008191                    
P  5  10550.797278  11630.180322 -21522.431862      1.184970                    
V  5 -16573.464576  21462.298814   3693.710678     -0.000064                    
P  6   6539.977779  25241.814035   5003.935889    247.712883                    
V  6  -4539.854866  -4949.744079  31228.552513     -0.089973                    
P  7 -10475.309740  12882.818812 -20375.717241      8.793292                    
V  7 -10652.349319 -24372.860006 -10271.917778     -0.073812                    
P  8 -25749.220775  -5870.615239  -3678.131843   -137.333868                    
V  8   4947.330722  -1691.157427 -31384.659910     -0.013750                    
P  9 -18479.042012   9503.627183 -16593.388451    440.260943                    
V  9 -20581.345038  -4627.635731  20312.008105     -0.060100                    
P 10   9007.446868 -22814.911880   9995.400308     89.919634                    
V 10   9848.570151  -8381.072371 -28360.630879     -0.089119                    
P 11 -21306.234798  -4266.748949  14585.784241   -639.426667                    
V 11 -12082.130686 -15939.910951 -21775.805097      0.068021                    
P 12  19686.787673  -5206.119762  16741.153086    257.404125                    
V 12 -13372.277052  17138.977801  20969.353813     -0.032940                    
P 13  20962.770509  12903.354776 -10141.762266    -70.520590                    
V 13 -12828.595740  -1166.476179 -28281.123925      0.014464                    
P 14  -7376.129515 -16092.132497  20167.589087    -87.161882                    
V 14  24477.841841   4504.893037  12565.580811      0.014222                    
P 15  26527.124477   3024.470901  -2265.066921   -321.968773                    
V 15  -2721.852587   3327.086567 -30599.101075      0.019046                    
P 16 -10503.638852 -10419.346065 -22230.900020    -27.626083                    
V 16  19110.904559 -20096.395664    820.936651     -0.026965                    
P 17  -2802.908845  14622.169353  22403.370783     28.262654                    
V 17 -26863.111306  -5347.692760     45.172893      0.058306                    
P 18 -17593.216162 -11999.515279  15476.514547     37.774101                    
V 18  -6556.218753 -19542.020094 -21790.533394      0.035119                    
P 19   6658.941305  15518.975428  20178.735780   -338.700360                    
V 19 -25719.775323  -5368.609091  12526.439792      0.043218                    
P 20  13992.196647 -22482.324678   -330.912607    523.383226                    
V 20   3184.093441   2291.835728 -31147.455079      0.003404                    
P 21   6118.628188 -17652.387908 -18127.519520   -226.291612                    
V 21  12117.340263  21582.037264 -16091.174206      0.074704                    
P 22 -17798.262458   -416.389994  19930.267912   -670.458185                    
V 22  12855.243362 -21416.313555  11227.777525     -0.073763                    
P 23 -25716.717441   1828.719056  -6890.304759   -192.859432                    
V 23  -8664.482429  -4007.351497  29472.171768      0.014105                    
P 24  17817.249711   5852.888058  18774.634497    -63.806981                    
V 24   8681.367759  22563.230358 -14822.516833     -0.005764                    
P 25  19425.830137 -16098.847425   7659.952426   -737.135892                    
V 25  -4213.138683   9501.084272  30101.698665     -0.047821                    
P 26  -2321.158146 -18871.175966 -18488.460148    157.625773                    
V 26  15456.148561 -17827.710205  16445.777620      0.100361                    
P 27 -19818.511867 -11906.159669 -13434.337865    -92.933463                    
V 27  16804.820962    793.326922 -25386.412637     -0.081936                    
P 28 -11494.984861  22027.759181  10120.501582    766.745726                    
V 28  -9390.866749   7513.491578 -28672.628756      0.005307                    
P 29  22589.585816  -4290.992526 -13324.383269    241.982471                    
V 29  16142.481455   5022.337973  25801.367183     -0.088370                    
P 30  -2889.997861  22352.409032 -13892.309671    -74.039877                    
V 30  -8476.350856 -15878.310235 -23936.086737     -0.066992                    
P 31  -6612.154896 -25221.901800   3572.454438     49.942450                    
V 31   4569.879786   3214.457726  31600.617863     -0.026796                    
P 32  -1087.534575 -15497.256787  21600.902243   -165.766685                    
V 32  27106.318573   3380.220574   3687.733526      0.182884                    
EOF
